SENTINEL-3B             
1 43437U 18039A   26150.79750030  .00000153  00000+0  81158-4 0  9992
2 43437  98.6252 218.5784 0001050  74.4073 285.7223 14.26736295421642
FENGYUN 2H              
1 43491U 18050A   26150.94666243 -.00000120  00000+0  00000+0 0  9991
2 43491   2.9887  79.2710 0001395 130.6015  98.8322  1.00272243 29269
METOP-C                 
1 43689U 18087A   26150.89349282  .00000139  00000+0  83325-4 0  9990
2 43689  98.6651 210.8123 0001056 146.9663 213.1581 14.21506921392377
GEO-KOMPSAT-2A          
1 43823U 18100A   26150.95628248 -.00000331  00000+0  00000+0 0  9994
2 43823   0.0444 116.8808 0002352 322.3403 281.7755  1.00272653 27454
METEOR-M2 2             
1 44387U 19038A   26150.96408929 -.00000209  00000+0 -70605-4 0  9992
2 44387  98.9133 137.9957 0002375  75.2438 284.9004 14.24359777358842
ARKTIKA-M 1             
1 47719U 21016A   26148.05507744 -.00000201  00000+0  00000+0 0  9993
2 47719  63.2344  60.5575 7281048 269.8546  14.7307  2.00628608 38386
FENGYUN 3E              
1 49008U 21062A   26151.00775478 -.00000222  00000+0 -84051-4 0  9994
2 49008  98.7487 154.6072 0002541 116.0754 244.0684 14.19901577254145
GOES 18                 
1 51850U 22021A   26150.76116779  .00000109  00000+0  00000+0 0  9992
2 51850   0.0492 128.7470 0000726 341.1086 275.4419  1.00273538  6415
NOAA 21 (JPSS-2)        
1 54234U 22150A   26150.90665886  .00000072  00000+0  55023-4 0  9997
2 54234  98.7057  89.9864 0000688 208.7486 151.3653 14.19562001184092
METEOSAT-12 (MTG-I1)    
1 54743U 22170C   26150.93081141  .00000004  00000+0  00000+0 0  9998
2 54743   0.7204  20.1374 0003577  66.9477 136.0376  1.00270765 12801
TIANMU-1 03             
1 55973U 23039A   26150.90939213  .00018713  00000+0  37533-3 0  9999
2 55973  97.5221 324.2101 0003943 142.2312 217.9214 15.46745275178169
TIANMU-1 04             
1 55974U 23039B   26150.90543828  .00018784  00000+0  36928-3 0  9998
2 55974  97.5158 323.3586 0004647 141.4095 218.7488 15.47325012178174
TIANMU-1 05             
1 55975U 23039C   26150.95403953  .00019689  00000+0  39570-3 0  9999
2 55975  97.5203 323.8776 0003285 158.2366 201.9024 15.46678264178153
TIANMU-1 06             
1 55976U 23039D   26150.90778394  .00018757  00000+0  36994-3 0  9991
2 55976  97.5211 324.4482 0003763 154.7248 205.4186 15.47235350178171
FENGYUN 3G              
1 56232U 23055A   26150.93142113  .00031064  00000+0  47698-3 0  9991
2 56232  49.9930  75.0345 0005511 121.6149 238.5357 15.53936402177325
METEOR-M2 3             
1 57166U 23091A   26150.95446192  .00000014  00000+0  24918-4 0  9996
2 57166  98.6090 206.2843 0003357 204.4957 155.6063 14.24045114152069
TIANMU-1 07             
1 57399U 23101A   26150.89613137  .00008120  00000+0  28572-3 0  9999
2 57399  97.2602 201.9633 0002851 158.8010 201.3349 15.29584581159009
TIANMU-1 08             
1 57400U 23101B   26150.92824139  .00008125  00000+0  28580-3 0  9996
2 57400  97.2591 201.7678 0004461 159.4616 200.6805 15.29591265159000
TIANMU-1 09             
1 57401U 23101C   26150.97738800  .00008154  00000+0  28660-3 0  9992
2 57401  97.2549 201.2406 0003167 168.9875 191.1436 15.29616085159015
TIANMU-1 10             
1 57402U 23101D   26150.94469703  .00008449  00000+0  29710-3 0  9997
2 57402  97.2628 202.2415 0004741 174.6233 185.5060 15.29586067159001
FENGYUN 3F              
1 57490U 23111A   26150.92160047  .00000080  00000+0  58331-4 0  9997
2 57490  98.6839 221.2513 0001517 105.9019 254.2325 14.19935761146410
ARKTIKA-M 2             
1 58584U 23198A   26146.82602476  .00000165  00000+0  00000+0 0  9997
2 58584  63.2204 156.7485 6896513 267.4914  18.7881  2.00593121 17897
TIANMU-1 11             
1 58645U 23205A   26150.94907861  .00007542  00000+0  28863-3 0  9995
2 58645  97.3448 172.7786 0010623  70.9383 289.3006 15.26796706134897
TIANMU-1 12             
1 58646U 23205B   26150.98454947  .00007472  00000+0  28649-3 0  9996
2 58646  97.3437 172.5727 0008617  58.5650 301.6431 15.26756713134881
TIANMU-1 13             
1 58647U 23205C   26150.94955038  .00007726  00000+0  29745-3 0  9990
2 58647  97.3464 172.8083 0007969  41.2037 318.9802 15.26610916134873
TIANMU-1 14             
1 58648U 23205D   26151.00080581  .00007710  00000+0  29639-3 0  9996
2 58648  97.3400 172.0540 0008922  44.3306 315.8646 15.26657004134889
TIANMU-1 19             
1 58660U 23208A   26150.90649950  .00010293  00000+0  34301-3 0  9994
2 58660  97.4491 267.1233 0005339  34.2616 325.8968 15.31284161134682
TIANMU-1 20             
1 58661U 23208B   26150.95772856  .00010192  00000+0  32717-3 0  9999
2 58661  97.4433 267.7923 0007594  36.9583 323.2181 15.32475880134789
TIANMU-1 21             
1 58662U 23208C   26150.90653773  .00012181  00000+0  36369-3 0  9998
2 58662  97.4491 270.3475 0007449  30.2742 329.8930 15.34736699134918
TIANMU-1 22             
1 58663U 23208D   26150.94795446  .00009563  00000+0  32382-3 0  9998
2 58663  97.4488 267.1153 0004705  58.5631 301.6069 15.30788532134699
TIANMU-1 15             
1 58700U 24004A   26150.92902175  .00007684  00000+0  29402-3 0  9993
2 58700  97.4663 337.1188 0008216  58.0218 302.1818 15.26824912133144
TIANMU-1 16             
1 58701U 24004B   26150.98070174  .00007081  00000+0  27346-3 0  9991
2 58701  97.4609 336.4267 0007276  61.8077 298.3895 15.26551810133151
TIANMU-1 17             
1 58702U 24004C   26150.96614917  .00006756  00000+0  26107-3 0  9991
2 58702  97.4638 336.8908 0006891  66.7641 293.4323 15.26551969133149
TIANMU-1 18             
1 58703U 24004D   26150.94545140  .00006988  00000+0  26793-3 0  9999
2 58703  97.4655 337.1147 0005402  64.7742 295.4056 15.26811453133147
INSAT-3DS               
1 58990U 24033A   26150.94718243 -.00000143  00000+0  00000+0 0  9992
2 58990   0.0218 249.7538 0001681 170.5707 251.1884  1.00272047 46894
METEOR-M2 4             
1 59051U 24039A   26150.94962279  .00000014  00000+0  25748-4 0  9994
2 59051  98.7002 110.4653 0006318 212.2613 147.8179 14.22427613116819
GOES 19                 
1 60133U 24119A   26150.91602738 -.00000236  00000+0  00000+0 0  9990
2 60133   0.0412 127.8250 0000741 351.5392  23.6343  1.00270974  6790
MTG-S1                  
1 64723U 25143A   26150.93020475 -.00000019  00000+0  00000+0 0  9990
2 64723   0.6184 335.3489 0001353  36.4845 208.0127  1.00271150  3246
METOP-SGA1              
1 65159U 25172A   26150.61224669  .00000081  00000+0  56933-4 0  9991
2 65159  98.6651 210.6598 0001021  84.0957 276.0337 14.21506613 41294
FENGYUN 3H              
1 65815U 25219A   26150.84728002  .00000071  00000+0  53971-4 0  9995
2 65815  98.6765  91.9542 0001589  90.4767 269.6591 14.19917001 34923
OSCAR 7 (AO-7)          
1 07530U 74089B   26150.97599856 -.00000032  00000+0  92722-4 0  9996
2 07530 101.9903 164.0430 0012395 162.3442 211.9072 12.53697835358366
PHASE 3B (AO-10)        
1 14129U 83058B   26150.40300918  .00000238  00000+0  00000+0 0  9991
2 14129  25.9007 222.5132 6016935 110.7746 321.0358  2.05869321295122
UOSAT 2 (UO-11)         
1 14781U 84021B   26150.90410258  .00001530  00000+0  16143-3 0  9995
2 14781  97.8048 116.6736 0006235 234.7016 125.3619 14.90736546254551
LUSAT (LO-19)           
1 20442U 90005G   26150.60021837  .00000162  00000+0  74535-4 0  9993
2 20442  98.8856 171.9206 0010453 256.6066 103.3952 14.34117244899873
EYESAT A (AO-27)        
1 22825U 93061C   26150.65872192  .00000145  00000+0  72300-4 0  9997
2 22825  98.6885 218.0778 0009058 145.8162 214.3606 14.30937002704492
ITAMSAT (IO-26)         
1 22826U 93061D   26150.64335931  .00000138  00000+0  69007-4 0  9994
2 22826  98.6833 217.9781 0009832 130.7941 229.4096 14.31363263704804
RADIO ROSTO (RS15)      
1 23439U 94085A   26150.91029931 -.00000041  00000+0  33058-4 0  9993
2 23439  64.8186 331.1586 0155435   7.0643 353.2422 11.27583695293952
JAS-2 (FO-29)           
1 24278U 96046B   26150.86233893 -.00000014  00000+0  18807-4 0  9997
2 24278  98.5255   2.1066 0350516 141.2807 221.4026 13.53273512470827
TECHSAT 1B (GO-32)      
1 25397U 98043D   26150.92507886  .00000075  00000+0  52507-4 0  9993
2 25397  99.0064 143.2489 0000217 259.0930 101.0223 14.24424695448876
ISS (ZARYA)             
1 25544U 98067A   26150.83995331  .00011335  00000+0  20978-3 0  9996
2 25544  51.6338  25.9780 0007215 115.7878 244.3856 15.49504954569065
PCSAT (NO-44)           
1 26931U 01043C   26150.83762067  .00000170  00000+0  94367-4 0  9992
2 26931  67.0511 289.1447 0006135 264.0006  96.0397 14.31948970287963
SAUDISAT 1C (SO-50)     
1 27607U 02058C   26150.48779528  .00001244  00000+0  16366-3 0  9996
2 27607  64.5508 183.7455 0075559 265.7135  93.5335 14.83004849261834
CUTE-1 (CO-55)          
1 27844U 03031E   26150.96684404  .00000361  00000+0  17519-3 0  9992
2 27844  98.6737 159.7425 0008531 230.9227 129.1194 14.24324114189227
CUBESAT XI-IV (CO-57)   
1 27848U 03031J   26150.52497153  .00000317  00000+0  15826-3 0  9991
2 27848  98.6768 159.0328 0008248 253.2938 106.7336 14.23610489188862
MOZHAETS 4 (RS22)       
1 27939U 03042A   26150.98211885  .00001847  00000+0  29271-3 0  9998
2 27939  98.3463 334.8559 0010612 329.6310 190.9628 14.73435910213015
CUBESAT XI-V            
1 28895U 05043F   26150.87216211  .00001764  00000+0  28541-3 0  9996
2 28895  98.2966 306.1330 0012811 259.3125 100.6639 14.72579470 99201
CUTE-1.7+APD II (CO-65) 
1 32785U 08021C   26150.94594133  .00006857  00000+0  43408-3 0  9995
2 32785  97.8267 132.0092 0010813  88.6602 271.5864 15.09270751982599
SEEDS II (CO-66)        
1 32791U 08021J   26150.50529315  .00021088  00000+0  68228-3 0  9994
2 32791  97.7511 147.5679 0003550  49.7745 310.3805 15.32079828984581
YUBILEINY (RS30)        
1 32953U 08025A   26150.95663872  .00000024  00000+0  10052-3 0  9993
2 32953  82.5057   6.1606 0019597 352.1864   7.8907 12.43178517817556
